NORAD_CAT_ID,OBJECT_NAME,OBJECT_TYPE,EPOCH,MEAN_MOTION,ECCENTRICITY,INCLINATION,RA_OF_ASC_NODE,ARG_OF_PERICENTER,MEAN_ANOMALY,BSTAR,MEAN_MOTION_DOT,MEAN_MOTION_DDOT,TLE_LINE0,TLE_LINE1,TLE_LINE2,SEMIMAJOR_AXIS,PERIOD,APOGEE,PERIGEE,DECAYED
52096.0,STARLINK-3717,PAYLOAD,2023-09-22 21:35:15,15.08839834,0.0001492,53.2168,153.9473,95.4698,264.6465,0.00042091,6.417e-05,0.0,0 STARLINK-3717,1 52096U 22029J   23265.89948040  .00006417  00000-0  42091-3 0  9994,2 52096  53.2168 153.9473 0001492  95.4698 264.6465 15.08839834 85092,6917.881,95.438,540.778,538.714,0.0
52096.0,STARLINK-3717,PAYLOAD,2023-09-22 23:10:38,15.08837197,0.0001378,53.2166,153.6506,86.6772,273.4377,0.00042556,6.491e-05,0.0,0 STARLINK-3717,1 52096U 22029J   23265.96571821  .00006491  00000-0  42556-3 0  9999,2 52096  53.2166 153.6506 0001378  86.6772 273.4377 15.08837197 85104,6917.889,95.438,540.707,538.801,0.0
52096.0,STARLINK-3717,PAYLOAD,2023-09-23 02:21:24,15.08851605,0.0001449,53.2167,153.0542,88.2675,271.8483,0.00042573,6.496e-05,0.0,0 STARLINK-3717,1 52096U 22029J   23266.09819569  .00006496  00000-0  42573-3 0  9992,2 52096  53.2167 153.0542 0001449  88.2675 271.8483 15.08851605 85120,6917.845,95.437,540.712,538.708,0.0
52096.0,STARLINK-3717,PAYLOAD,2023-09-24 02:12:10,15.08851491,0.0001413,53.2169,148.5942,93.0483,267.0671,6.2391e-05,7.05e-06,0.0,0 STARLINK-3717,1 52096U 22029J   23267.09179129  .00000705  00000-0  62391-4 0  9992,2 52096  53.2169 148.5942 0001413  93.0483 267.0671 15.08851491 85272,6917.845,95.437,540.688,538.733,0.0
52096.0,STARLINK-3717,PAYLOAD,2023-09-24 16:30:39,15.08836346,0.0001447,53.2174,145.9175,90.9673,269.1485,-1.5353e-05,-5.32e-06,0.0,0 STARLINK-3717,1 52096U 22029J   23267.68795978 -.00000532  00000-0 -15353-4 0  9999,2 52096  53.2174 145.9175 0001447  90.9673 269.1485 15.08836346 85369,6917.892,95.438,540.758,538.756,0.0
52096.0,STARLINK-3717,PAYLOAD,2023-09-24 21:16:48,15.08842182,0.0001423,53.2165,145.0249,94.5105,265.605,-2.623e-05,-7.05e-06,0.0,0 STARLINK-3717,1 52096U 22029J   23267.88667566 -.00000705  00000-0 -26230-4 0  9990,2 52096  53.2165 145.0249 0001423  94.5105 265.6050 15.08842182 85393,6917.874,95.437,540.723,538.754,0.0
52096.0,STARLINK-3717,PAYLOAD,2023-09-25 02:02:58,15.08844998,0.0001351,53.2166,144.1338,78.8861,281.2283,4.1592e-05,3.74e-06,0.0,0 STARLINK-3717,1 52096U 22029J   23268.08539489  .00000374  00000-0  41592-4 0  9993,2 52096  53.2166 144.1338 0001351  78.8861 281.2283 15.08844998 85420,6917.865,95.437,540.665,538.796,0.0
52096.0,STARLINK-3717,PAYLOAD,2023-09-25 08:24:30,15.08848955,0.0001339,53.2167,142.9446,78.3497,281.7645,0.00010392,1.367e-05,0.0,0 STARLINK-3717,1 52096U 22029J   23268.35035306  .00001367  00000-0  10392-3 0  9998,2 52096  53.2167 142.9446 0001339  78.3497 281.7645 15.08848955 85461,6917.853,95.437,540.644,538.792,0.0
52096.0,STARLINK-3717,PAYLOAD,2023-09-25 21:07:35,15.0885009,0.0001285,53.2166,140.566,83.8817,276.2321,0.00028393,4.235e-05,0.0,0 STARLINK-3717,1 52096U 22029J   23268.88027377  .00004235  00000-0  28393-3 0  9992,2 52096  53.2166 140.5660 0001285  83.8817 276.2321 15.08850090 85541,6917.85,95.437,540.603,538.826,0.0
52096.0,STARLINK-3717,PAYLOAD,2023-09-26 00:18:21,15.08858492,0.0001323,53.2167,139.9719,87.8503,272.264,0.00040915,6.233e-05,0.0,0 STARLINK-3717,1 52096U 22029J   23269.01274901  .00006233  00000-0  40915-3 0  9999,2 52096  53.2167 139.9719 0001323  87.8503 272.2640 15.08858492 85564,6917.824,95.436,540.604,538.774,0.0
52096.0,STARLINK-3717,PAYLOAD,2023-09-26 20:58:23,15.08831903,0.0001474,53.2161,136.1045,81.5036,278.6123,-0.00010746,-1.997e-05,0.0,0 STARLINK-3717,1 52096U 22029J   23269.87388175 -.00001997  00000-0 -10746-3 0  9995,2 52096  53.2161 136.1045 0001474  81.5036 278.6123 15.08831903 85696,6917.905,95.438,540.79,538.75,0.0
52096.0,STARLINK-3717,PAYLOAD,2023-09-27 00:09:09,15.08830636,0.0001495,53.2162,135.5098,79.5243,280.5917,-0.00010271,-1.922e-05,0.0,0 STARLINK-3717,1 52096U 22029J   23270.00636312 -.00001922  00000-0 -10271-3 0  9992,2 52096  53.2162 135.5098 0001495  79.5243 280.5917 15.08830636 85716,6917.909,95.438,540.808,538.74,0.0
52096.0,STARLINK-3717,PAYLOAD,2023-09-27 23:59:57,15.0884101,0.0001566,53.2155,131.0492,112.8767,247.2391,0.00023206,3.407e-05,0.0,0 STARLINK-3717,1 52096U 22029J   23270.99996582  .00003407  00000-0  23206-3 0  9998,2 52096  53.2155 131.0492 0001566 112.8767 247.2391 15.08841010 85868,6917.877,95.437,540.826,538.659,0.0
52096.0,STARLINK-3717,PAYLOAD,2023-09-28 22:15:20,15.08854378,0.0001411,53.2149,126.8864,103.0815,257.0335,0.00054872,8.459e-05,0.0,0 STARLINK-3717,1 52096U 22029J   23271.92732406  .00008459  00000-0  54872-3 0  9990,2 52096  53.2149 126.8864 0001411 103.0815 257.0335 15.08854378 86006,6917.836,95.437,540.678,538.725,0.0
52096.0,STARLINK-3717,PAYLOAD,2023-09-28 23:50:43,15.08857382,0.0001418,53.2148,126.5888,103.3917,256.7233,0.00059873,9.258e-05,0.0,0 STARLINK-3717,1 52096U 22029J   23271.99356298  .00009258  00000-0  59873-3 0  9992,2 52096  53.2148 126.5888 0001418 103.3917 256.7233 15.08857382 86013,6917.827,95.436,540.673,538.711,0.0
52096.0,STARLINK-3717,PAYLOAD,2023-09-29 18:55:21,15.08849748,0.0001613,53.2148,123.0197,101.4319,258.6854,0.0002569,3.804e-05,0.0,0 STARLINK-3717,1 52096U 22029J   23272.78844267  .00003804  00000-0  25690-3 0  9999,2 52096  53.2148 123.0197 0001613 101.4319 258.6854 15.08849748 86130,6917.851,95.437,540.831,538.6,0.0
52096.0,STARLINK-3717,PAYLOAD,2023-09-29 20:30:44,15.08849954,0.0001558,53.2149,122.7226,100.77,259.3468,0.00025626,3.794e-05,0.0,0 STARLINK-3717,1 52096U 22029J   23272.85468219  .00003794  00000-0  25626-3 0  9993,2 52096  53.2149 122.7226 0001558 100.7700 259.3468 15.08849954 86143,6917.85,95.437,540.793,538.637,0.0
52096.0,STARLINK-3717,PAYLOAD,2023-09-30 17:10:45,15.08839305,0.0001653,53.2154,118.857,93.7344,266.3838,-2.7567e-06,-3.32e-06,0.0,0 STARLINK-3717,1 52096U 22029J   23273.71580562 -.00000332  00000-0 -27567-5 0  9990,2 52096  53.2154 118.8570 0001653  93.7344 266.3838 15.08839305 86270,6917.883,95.438,540.891,538.604,0.0
52096.0,STARLINK-3717,PAYLOAD,2023-09-30 23:32:17,15.08843251,0.0001516,53.2154,117.6664,100.7136,259.4027,1.8944e-06,-2.58e-06,0.0,0 STARLINK-3717,1 52096U 22029J   23273.98076332 -.00000258  00000-0  18944-5 0  9999,2 52096  53.2154 117.6664 0001516 100.7136 259.4027 15.08843251 86310,6917.87,95.437,540.784,538.687,0.0
52096.0,STARLINK-3717,PAYLOAD,2023-10-01 18:36:55,15.08849487,0.000138,53.2151,114.0985,96.9948,263.1201,0.00020943,3.048e-05,0.0,0 STARLINK-3717,1 52096U 22029J   23274.77564114  .00003048  00000-0  20943-3 0  9996,2 52096  53.2151 114.0985 0001380  96.9948 263.1201 15.08849487 86436,6917.851,95.437,540.671,538.762,0.0
52096.0,STARLINK-3717,PAYLOAD,2023-10-01 20:12:18,15.08856143,0.0001465,53.2153,113.8004,82.6444,277.4715,0.00034382,5.191e-05,0.0,0 STARLINK-3717,1 52096U 22029J   23274.84187930  .00005191  00000-0  34382-3 0  9994,2 52096  53.2153 113.8004 0001465  82.6444 277.4715 15.08856143 86440,6917.831,95.437,540.71,538.683,0.0
52096.0,STARLINK-3717,PAYLOAD,2023-10-01 23:23:04,15.08860385,0.0001404,53.2154,113.2054,92.9881,267.1272,0.00043404,6.63e-05,0.0,0 STARLINK-3717,1 52096U 22029J   23274.97435672  .00006630  00000-0  43404-3 0  9991,2 52096  53.2154 113.2054 0001404  92.9881 267.1272 15.08860385 86461,6917.818,95.436,540.654,538.712,0.0
52096.0,STARLINK-3717,PAYLOAD,2023-10-02 20:03:05,15.08843983,0.0001448,53.2154,109.3403,83.2266,276.8891,0.00014338,1.995e-05,0.0,0 STARLINK-3717,1 52096U 22029J   23275.83548329  .00001995  00000-0  14338-3 0  9994,2 52096  53.2154 109.3403 0001448  83.2266 276.8891 15.08843983 86596,6917.868,95.437,540.735,538.732,0.0
52096.0,STARLINK-3717,PAYLOAD,2023-10-03 05:35:24,15.08839291,0.0001429,53.2154,107.5562,79.4909,280.6244,9.6595e-05,1.25e-05,0.0,0 STARLINK-3717,1 52096U 22029J   23276.23292454  .00001250  00000-0  96595-4 0  9994,2 52096  53.2154 107.5562 0001429  79.4909 280.6244 15.08839291 86651,6917.883,95.438,540.736,538.759,0.0
52096.0,STARLINK-3717,PAYLOAD,2023-10-03 18:18:29,15.08840798,0.000143,53.2152,105.1783,84.4502,275.6653,0.00011504,1.543e-05,0.0,0 STARLINK-3717,1 52096U 22029J   23276.76284536  .00001543  00000-0  11504-3 0  9995,2 52096  53.2152 105.1783 0001430  84.4502 275.6653 15.08840798 86736,6917.878,95.438,540.732,538.754,0.0
52096.0,STARLINK-3717,PAYLOAD,2023-10-03 19:53:52,15.08845309,0.0001424,53.215,104.8815,86.9959,273.1196,0.00023719,3.489e-05,0.0,0 STARLINK-3717,1 52096U 22029J   23276.82908391  .00003489  00000-0  23719-3 0  9996,2 52096  53.2150 104.8815 0001424  86.9959 273.1196 15.08845309 86741,6917.864,95.437,540.714,538.744,0.0
52096.0,STARLINK-3717,PAYLOAD,2023-10-04 11:47:44,15.08844623,0.0001581,53.2147,101.909,90.6792,269.4381,0.0002577,3.816e-05,0.0,0 STARLINK-3717,1 52096U 22029J   23277.49148507  .00003816  00000-0  25770-3 0  9998,2 52096  53.2147 101.9090 0001581  90.6792 269.4381 15.08844623 86844,6917.866,95.437,540.825,538.638,0.0
52096.0,STARLINK-3717,PAYLOAD,2023-10-04 19:44:40,15.08841138,0.0001544,53.215,100.4218,87.3634,272.7535,0.0008122,0.00012662,0.0,0 STARLINK-3717,1 52096U 22029J   23277.82268915  .00012662  00000-0  81220-3 0  9992,2 52096  53.2150 100.4218 0001544  87.3634 272.7535 15.08841138 86892,6917.877,95.437,540.81,538.674,0.0
52096.0,STARLINK-3717,PAYLOAD,2023-10-05 11:38:31,15.08846413,0.0001877,53.2147,97.4493,83.0222,277.0984,0.00017768,2.541e-05,0.0,0 STARLINK-3717,1 52096U 22029J   23278.48508476  .00002541  00000-0  17768-3 0  9995,2 52096  53.2147  97.4493 0001877  83.0222 277.0984 15.08846413 86991,6917.861,95.437,541.024,538.427,0.0
52096.0,STARLINK-3717,PAYLOAD,2023-10-05 19:35:26,15.08843477,0.000142,53.2154,95.961,84.8542,275.2612,7.6185e-05,9.25e-06,0.0,0 STARLINK-3717,1 52096U 22029J   23278.81628467  .00000925  00000-0  76185-4 0  9998,2 52096  53.2154  95.9610 0001420  84.8542 275.2612 15.08843477 87043,6917.87,95.437,540.717,538.752,0.0
